{"timestamp_utc":"2026-03-11T16:35:13Z","norad_id":"48909","satellite_name":"PACE-1","line1":"1 48909U 21059AG  26070.04989691  .00062457  00000+0  59324-3 0  9997","line2":"2 48909  97.6849 258.1649 0002668 308.8013  51.3008 15.66688309262374"}
{"timestamp_utc":"2026-03-13T14:59:44Z","norad_id":"48909","satellite_name":"PACE-1","line1":"1 48909U 21059AG  26071.96588339  .00059343  00000+0  55872-3 0  9997","line2":"2 48909  97.6845 260.2590 0002582 300.4608  59.6396 15.66920111262676"}
{"timestamp_utc":"2026-03-14T03:22:58Z","norad_id":"48909","satellite_name":"PACE-1","line1":"1 48909U 21059AG  26072.47676732  .00056155  00000+0  52772-3 0  9993","line2":"2 48909  97.6843 260.8170 0002600 298.8536  61.2462 15.66979118262758"}
{"timestamp_utc":"2026-03-15T03:47:05Z","norad_id":"48909","satellite_name":"PACE-1","line1":"1 48909U 21059AG  26073.49847258  .00063087  00000+0  58899-3 0  9997","line2":"2 48909  97.6844 261.9341 0002638 295.5456  64.5531 15.67115514262911"}
{"timestamp_utc":"2026-03-16T03:51:12Z","norad_id":"48909","satellite_name":"PACE-1","line1":"1 48909U 21059AG  26074.45623686  .00047680  00000+0  44405-3 0  9990","line2":"2 48909  97.6841 262.9820 0002594 287.8364  72.2613 15.67238740263065"}
{"timestamp_utc":"2026-03-17T03:29:11Z","norad_id":"48909","satellite_name":"PACE-1","line1":"1 48909U 21059AG  26075.79699947  .00051654  00000+0  47816-3 0  9996","line2":"2 48909  97.6836 264.4491 0002542 283.4772  76.6204 15.67372321263279"}
{"timestamp_utc":"2026-03-18T03:36:06Z","norad_id":"48909","satellite_name":"PACE-1","line1":"1 48909U 21059AG  26076.49925766  .00044014  00000+0  40678-3 0  9996","line2":"2 48909  97.6838 265.2169 0002572 279.0747  81.0222 15.67445495263383"}
{"timestamp_utc":"2026-03-19T03:35:55Z","norad_id":"48909","satellite_name":"PACE-1","line1":"1 48909U 21059AG  26077.45683528  .00044838  00000+0  41289-3 0  9993","line2":"2 48909  97.6838 266.2648 0002607 276.4131  83.6832 15.67531663263538"}
{"timestamp_utc":"2026-03-20T03:26:23Z","norad_id":"48909","satellite_name":"PACE-1","line1":"1 48909U 21059AG  26078.03135740  .00044764  00000+0  41138-3 0  9997","line2":"2 48909  97.6839 266.8934 0002609 274.0431  86.0530 15.67582237263627"}
{"timestamp_utc":"2026-03-21T03:14:54Z","norad_id":"48909","satellite_name":"PACE-1","line1":"1 48909U 21059AG  26079.43567074  .00042450  00000+0  38847-3 0  9994","line2":"2 48909  97.6835 268.4304 0002601 266.5593  93.5369 15.67697015263847"}
{"timestamp_utc":"2026-03-22T03:35:11Z","norad_id":"48909","satellite_name":"PACE-1","line1":"1 48909U 21059AG  26080.45690775  .00079157  00000+0  71596-3 0  9995","line2":"2 48909  97.6838 269.5476 0002580 263.0656  97.0311 15.67843175264005"}
{"timestamp_utc":"2026-03-23T03:39:50Z","norad_id":"48909","satellite_name":"PACE-1","line1":"1 48909U 21059AG  26081.09512878  .00065917  00000+0  59512-3 0  9996","line2":"2 48909  97.6838 270.2461 0002576 259.7800 100.3170 15.67935697264109"}
{"timestamp_utc":"2026-03-24T03:30:43Z","norad_id":"48909","satellite_name":"PACE-1","line1":"1 48909U 21059AG  26082.05239590  .00073461  00000+0  65886-3 0  9994","line2":"2 48909  97.6839 271.2940 0002545 255.2570 104.8408 15.68071719264250"}
{"timestamp_utc":"2026-03-25T03:33:55Z","norad_id":"48909","satellite_name":"PACE-1","line1":"1 48909U 21059AG  26083.07339089  .00058592  00000+0  52395-3 0  9990","line2":"2 48909  97.6847 272.4119 0002629 250.6810 109.4167 15.68199120264417"}
{"timestamp_utc":"2026-03-26T03:43:41Z","norad_id":"48909","satellite_name":"PACE-1","line1":"1 48909U 21059AG  26084.03050083  .00052474  00000+0  46764-3 0  9997","line2":"2 48909  97.6847 273.4603 0002603 245.7462 114.3527 15.68307204264561"}
{"timestamp_utc":"2026-03-27T03:45:58Z","norad_id":"48909","satellite_name":"PACE-1","line1":"1 48909U 21059AG  26085.05134632  .00055114  00000+0  48864-3 0  9990","line2":"2 48909  97.6849 274.5785 0002450 241.7904 118.3109 15.68424603264724"}
{"timestamp_utc":"2026-03-28T03:31:47Z","norad_id":"48909","satellite_name":"PACE-1","line1":"1 48909U 21059AG  26086.32728955  .00056138  00000+0  49440-3 0  9996","line2":"2 48909  97.6851 275.9760 0002713 236.3531 123.7471 15.68583604264924"}
{"timestamp_utc":"2026-03-29T03:51:46Z","norad_id":"48909","satellite_name":"PACE-1","line1":"1 48909U 21059AG  26087.79446321  .00069597  00000+0  60695-3 0  9990","line2":"2 48909  97.6840 277.5848 0002577 229.6751 130.4284 15.68774480265151"}
{"timestamp_utc":"2026-03-30T03:55:25Z","norad_id":"48909","satellite_name":"PACE-1","line1":"1 48909U 21059AG  26088.04960499  .00066242  00000+0  57710-3 0  9994","line2":"2 48909  97.6838 277.8645 0002598 230.1312 129.9721 15.68811571265195"}
{"timestamp_utc":"2026-03-31T03:46:22Z","norad_id":"48909","satellite_name":"PACE-1","line1":"1 48909U 21059AG  26089.45276832  .00073716  00000+0  63573-3 0  9999","line2":"2 48909  97.6837 279.4023 0002794 226.1115 133.9916 15.69032485265412"}
{"timestamp_utc":"2026-04-01T03:58:22Z","norad_id":"48909","satellite_name":"PACE-1","line1":"1 48909U 21059AG  26090.09050521  .00077714  00000+0  66707-3 0  9990","line2":"2 48909  97.6832 280.1020 0002766 225.0500 135.0537 15.69133686265516"}
{"timestamp_utc":"2026-04-02T03:39:26Z","norad_id":"48909","satellite_name":"PACE-1","line1":"1 48909U 21059AG  26091.04704323  .00075060  00000+0  64122-3 0  9993","line2":"2 48909  97.6827 281.1512 0002735 220.7302 139.3755 15.69259577265668"}
{"timestamp_utc":"2026-04-03T03:41:24Z","norad_id":"48909","satellite_name":"PACE-1","line1":"1 48909U 21059AG  26092.25854059  .00086655  00000+0  73361-3 0  9996","line2":"2 48909  97.6833 282.4797 0002802 216.5468 143.5602 15.69440240265853"}
{"timestamp_utc":"2026-04-04T03:29:00Z","norad_id":"48909","satellite_name":"PACE-1","line1":"1 48909U 21059AG  26093.46987514  .00084957  00000+0  71259-3 0  9990","line2":"2 48909  97.6834 283.8088 0002868 211.5727 148.5363 15.69671835266044"}
{"timestamp_utc":"2026-04-05T03:50:46Z","norad_id":"48909","satellite_name":"PACE-1","line1":"1 48909U 21059AG  26094.48981549  .00075053  00000+0  62573-3 0  9991","line2":"2 48909  97.6831 284.9280 0002939 208.4117 151.6984 15.69851751266203"}
{"timestamp_utc":"2026-04-06T03:54:36Z","norad_id":"48909","satellite_name":"PACE-1","line1":"1 48909U 21059AG  26095.50964767  .00068989  00000+0  57219-3 0  9999","line2":"2 48909  97.6842 286.0476 0003003 206.3736 153.7373 15.69999021266367"}
{"timestamp_utc":"2026-04-07T03:45:17Z","norad_id":"48909","satellite_name":"PACE-1","line1":"1 48909U 21059AG  26096.27445977  .00070073  00000+0  57856-3 0  9995","line2":"2 48909  97.6840 286.8873 0002940 204.0619 156.0506 15.70105038266484"}
{"timestamp_utc":"2026-04-08T03:47:34Z","norad_id":"48909","satellite_name":"PACE-1","line1":"1 48909U 21059AG  26097.48531019  .00059304  00000+0  48722-3 0  9998","line2":"2 48909  97.6839 288.2168 0003042 198.1367 161.9786 15.70264117266672"}
{"timestamp_utc":"2026-04-09T03:43:06Z","norad_id":"48909","satellite_name":"PACE-1","line1":"1 48909U 21059AG  26098.24999781  .00064439  00000+0  52697-3 0  9998","line2":"2 48909  97.6840 289.0568 0003033 196.7350 163.3812 15.70356853266791"}
{"timestamp_utc":"2026-04-10T03:56:00Z","norad_id":"48909","satellite_name":"PACE-1","line1":"1 48909U 21059AG  26099.52437717  .00050883  00000+0  41438-3 0  9995","line2":"2 48909  97.6840 290.4568 0003132 192.7524 167.3659 15.70509036266994"}
{"timestamp_utc":"2026-04-11T03:32:39Z","norad_id":"48909","satellite_name":"PACE-1","line1":"1 48909U 21059AG  26100.03409495  .00057643  00000+0  46780-3 0  9992","line2":"2 48909  97.6835 291.0174 0003086 190.8589 169.2607 15.70566220267078"}
{"timestamp_utc":"2026-04-12T03:59:00Z","norad_id":"48909","satellite_name":"PACE-1","line1":"1 48909U 21059AG  26101.49942409  .00057422  00000+0  46267-3 0  9995","line2":"2 48909  97.6830 292.6272 0003198 184.9361 175.1870 15.70740478267308"}
{"timestamp_utc":"2026-04-13T04:16:19Z","norad_id":"48909","satellite_name":"PACE-1","line1":"1 48909U 21059AG  26102.77350215  .00046534  00000+0  37371-3 0  9993","line2":"2 48909  97.6838 294.0282 0003226 182.3759 177.7488 15.70863390267502"}
{"timestamp_utc":"2026-04-14T03:57:38Z","norad_id":"48909","satellite_name":"PACE-1","line1":"1 48909U 21059AG  26103.28310644  .00039219  00000+0  31483-3 0  9992","line2":"2 48909  97.6833 294.5883 0003288 181.3959 178.7294 15.70907458267586"}
{"timestamp_utc":"2026-04-15T03:56:41Z","norad_id":"48909","satellite_name":"PACE-1","line1":"1 48909U 21059AG  26104.42966840  .00038920  00000+0  31128-3 0  9998","line2":"2 48909  97.6828 295.8492 0003306 176.4788 183.6498 15.70997865267768"}
{"timestamp_utc":"2026-04-16T04:11:37Z","norad_id":"48909","satellite_name":"PACE-1","line1":"1 48909U 21059AG  26105.51247032  .00041946  00000+0  33401-3 0  9992","line2":"2 48909  97.6825 297.0398 0003317 173.9936 186.1366 15.71088502267934"}
{"timestamp_utc":"2026-04-17T03:59:29Z","norad_id":"48909","satellite_name":"PACE-1","line1":"1 48909U 21059AG  26106.78627740  .00039894  00000+0  31646-3 0  9998","line2":"2 48909  97.6822 298.4403 0003383 170.3581 189.7746 15.71189360268131"}
{"timestamp_utc":"2026-04-18T03:44:32Z","norad_id":"48909","satellite_name":"PACE-1","line1":"1 48909U 21059AG  26107.48683724  .00039877  00000+0  31561-3 0  9997","line2":"2 48909  97.6817 299.2108 0003418 167.3262 192.8086 15.71243323268241"}
{"timestamp_utc":"2026-04-19T04:11:14Z","norad_id":"48909","satellite_name":"PACE-1","line1":"1 48909U 21059AG  26108.50578647  .00068223  00000+0  53498-3 0  9998","line2":"2 48909  97.6818 300.3313 0003429 164.2947 195.8422 15.71351756268407"}
{"timestamp_utc":"2026-04-20T04:16:16Z","norad_id":"48909","satellite_name":"PACE-1","line1":"1 48909U 21059AG  26109.77936272  .00065440  00000+0  51005-3 0  9990","line2":"2 48909  97.6823 301.7320 0003487 161.1939 198.9452 15.71506858268601"}
